{
  "type": "FeatureCollection",
  "features": [
    {
      "type": "Feature",
      "properties": {
        "norad_id": 25590,
        "name": "COSMOS 2361",
        "group": "musson",
        "lat": 56.471447077858976,
        "lon": -11.817880970580472,
        "alt_km": 1004.8577479262394,
        "timestamp": "2025-12-21T18:54:58.766348+00:00",
        "meta_object_name": "COSMOS 2361",
        "meta_object_id": "1998-076A",
        "meta_epoch": "2025-12-21T12:14:07.609056",
        "meta_mean_motion": 13.73218488,
        "meta_eccentricity": 0.00301997,
        "meta_inclination": 82.9341,
        "meta_ra_of_asc_node": 337.5995,
        "meta_arg_of_pericenter": 240.1953,
        "meta_mean_anomaly": 241.617,
        "meta_ephemeris_type": 0,
        "meta_classification_type": "U",
        "meta_norad_cat_id": 25590,
        "meta_element_set_no": 999,
        "meta_rev_at_epoch": 35231,
        "meta_bstar": 3.8356272e-05,
        "meta_mean_motion_dot": 5e-07,
        "meta_mean_motion_ddot": 0,
        "tle_line1": "1 25590U 98076A   25355.50981029  .00000050  00000+0  38356-4 0  9998",
        "tle_line2": "2 25590  82.9341 337.5995 0030199 240.1953 241.6170 13.73218488352317"
      },
      "geometry": {
        "type": "Point",
        "coordinates": [
          -11.817880970580472,
          56.471447077858976
        ]
      }
    },
    {
      "type": "Feature",
      "properties": {
        "norad_id": 26818,
        "name": "COSMOS 2378",
        "group": "musson",
        "lat": 19.975704003246708,
        "lon": 170.42850694412581,
        "alt_km": 961.8852652208307,
        "timestamp": "2025-12-21T18:54:58.766370+00:00",
        "meta_object_name": "COSMOS 2378",
        "meta_object_id": "2001-023A",
        "meta_epoch": "2025-12-21T11:40:53.662080",
        "meta_mean_motion": 13.74142657,
        "meta_eccentricity": 0.0032939,
        "meta_inclination": 82.927,
        "meta_ra_of_asc_node": 353.2385,
        "meta_arg_of_pericenter": 180.3149,
        "meta_mean_anomaly": 289.174,
        "meta_ephemeris_type": 0,
        "meta_classification_type": "U",
        "meta_norad_cat_id": 26818,
        "meta_element_set_no": 999,
        "meta_rev_at_epoch": 23043,
        "meta_bstar": 2.4373324e-05,
        "meta_mean_motion_dot": 3.8e-07,
        "meta_mean_motion_ddot": 0,
        "tle_line1": "1 26818U 01023A   25355.48673220  .00000038  00000+0  24373-4 0  9996",
        "tle_line2": "2 26818  82.9270 353.2385 0032939 180.3149 289.1740 13.74142657230439"
      },
      "geometry": {
        "type": "Point",
        "coordinates": [
          170.42850694412581,
          19.975704003246708
        ]
      }
    },
    {
      "type": "Feature",
      "properties": {
        "norad_id": 27436,
        "name": "COSMOS 2389",
        "group": "musson",
        "lat": 39.33104898808103,
        "lon": -53.89472519494387,
        "alt_km": 943.3410284321653,
        "timestamp": "2025-12-21T18:54:58.766383+00:00",
        "meta_object_name": "COSMOS 2389",
        "meta_object_id": "2002-026A",
        "meta_epoch": "2025-12-21T05:18:49.493952",
        "meta_mean_motion": 13.75155469,
        "meta_eccentricity": 0.0047292,
        "meta_inclination": 82.951,
        "meta_ra_of_asc_node": 300.7059,
        "meta_arg_of_pericenter": 37.6336,
        "meta_mean_anomaly": 77.8383,
        "meta_ephemeris_type": 0,
        "meta_classification_type": "U",
        "meta_norad_cat_id": 27436,
        "meta_element_set_no": 999,
        "meta_rev_at_epoch": 18265,
        "meta_bstar": 3.7349e-05,
        "meta_mean_motion_dot": 5.1e-07,
        "meta_mean_motion_ddot": 0,
        "tle_line1": "1 27436U 02026A   25355.22140618  .00000051  00000+0  37349-4 0  9991",
        "tle_line2": "2 27436  82.9510 300.7059 0047292  37.6336  77.8383 13.75155469182659"
      },
      "geometry": {
        "type": "Point",
        "coordinates": [
          -53.89472519494387,
          39.33104898808103
        ]
      }
    },
    {
      "type": "Feature",
      "properties": {
        "norad_id": 27818,
        "name": "COSMOS 2398",
        "group": "musson",
        "lat": -79.63107559742971,
        "lon": 128.59816922707856,
        "alt_km": 1022.3983665129717,
        "timestamp": "2025-12-21T18:54:58.766395+00:00",
        "meta_object_name": "COSMOS 2398",
        "meta_object_id": "2003-023A",
        "meta_epoch": "2025-12-21T13:14:03.083712",
        "meta_mean_motion": 13.72386565,
        "meta_eccentricity": 0.00327187,
        "meta_inclination": 82.9484,
        "meta_ra_of_asc_node": 266.2051,
        "meta_arg_of_pericenter": 88.3185,
        "meta_mean_anomaly": 84.9577,
        "meta_ephemeris_type": 0,
        "meta_classification_type": "U",
        "meta_norad_cat_id": 27818,
        "meta_element_set_no": 999,
        "meta_rev_at_epoch": 12937,
        "meta_bstar": 5.8714195e-05,
        "meta_mean_motion_dot": 6.9e-07,
        "meta_mean_motion_ddot": 0,
        "tle_line1": "1 27818U 03023A   25355.55142458  .00000069  00000+0  58714-4 0  9991",
        "tle_line2": "2 27818  82.9484 266.2051 0032718  88.3185  84.9577 13.72386565129377"
      },
      "geometry": {
        "type": "Point",
        "coordinates": [
          128.59816922707856,
          -79.63107559742971
        ]
      }
    },
    {
      "type": "Feature",
      "properties": {
        "norad_id": 28380,
        "name": "COSMOS 2407",
        "group": "musson",
        "lat": -45.35758905664167,
        "lon": 33.38119074654717,
        "alt_km": 1011.9842824303332,
        "timestamp": "2025-12-21T18:54:58.766405+00:00",
        "meta_object_name": "COSMOS 2407",
        "meta_object_id": "2004-028A",
        "meta_epoch": "2025-12-21T14:24:34.609248",
        "meta_mean_motion": 13.76314649,
        "meta_eccentricity": 0.00399211,
        "meta_inclination": 82.9597,
        "meta_ra_of_asc_node": 206.3322,
        "meta_arg_of_pericenter": 30.6809,
        "meta_mean_anomaly": 345.284,
        "meta_ephemeris_type": 0,
        "meta_classification_type": "U",
        "meta_norad_cat_id": 28380,
        "meta_element_set_no": 999,
        "meta_rev_at_epoch": 7545,
        "meta_bstar": 4.7774096e-05,
        "meta_mean_motion_dot": 6.2e-07,
        "meta_mean_motion_ddot": 0,
        "tle_line1": "1 28380U 04028A   25355.60040057  .00000062  00000+0  47774-4 0  9997",
        "tle_line2": "2 28380  82.9597 206.3322 0039921  30.6809 345.2840 13.76314649 75452"
      },
      "geometry": {
        "type": "Point",
        "coordinates": [
          33.38119074654717,
          -45.35758905664167
        ]
      }
    },
    {
      "type": "Feature",
      "properties": {
        "norad_id": 28521,
        "name": "COSMOS 2414",
        "group": "musson",
        "lat": 33.06159617457184,
        "lon": -6.803507416173764,
        "alt_km": 908.2707351007475,
        "timestamp": "2025-12-21T18:54:58.766416+00:00",
        "meta_object_name": "COSMOS 2414",
        "meta_object_id": "2005-002A",
        "meta_epoch": "2025-12-21T13:01:30.405792",
        "meta_mean_motion": 13.87904154,
        "meta_eccentricity": 0.00413129,
        "meta_inclination": 82.9488,
        "meta_ra_of_asc_node": 178.0032,
        "meta_arg_of_pericenter": 115.2303,
        "meta_mean_anomaly": 245.3152,
        "meta_ephemeris_type": 0,
        "meta_classification_type": "U",
        "meta_norad_cat_id": 28521,
        "meta_element_set_no": 999,
        "meta_rev_at_epoch": 5917,
        "meta_bstar": 4.6392264e-05,
        "meta_mean_motion_dot": 7.2e-07,
        "meta_mean_motion_ddot": 0,
        "tle_line1": "1 28521U 05002A   25355.54271303  .00000072  00000+0  46392-4 0  9996",
        "tle_line2": "2 28521  82.9488 178.0032 0041312 115.2303 245.3152 13.87904154 59172"
      },
      "geometry": {
        "type": "Point",
        "coordinates": [
          -6.803507416173764,
          33.06159617457184
        ]
      }
    },
    {
      "type": "Feature",
      "properties": {
        "norad_id": 32052,
        "name": "COSMOS 2429",
        "group": "musson",
        "lat": -44.82239677006501,
        "lon": 163.67115790482345,
        "alt_km": 1011.9397555142787,
        "timestamp": "2025-12-21T18:54:58.766427+00:00",
        "meta_object_name": "COSMOS 2429",
        "meta_object_id": "2007-038A",
        "meta_epoch": "2025-12-21T10:50:20.529600",
        "meta_mean_motion": 13.7515024,
        "meta_eccentricity": 0.00387423,
        "meta_inclination": 82.9806,
        "meta_ra_of_asc_node": 336.8861,
        "meta_arg_of_pericenter": 13.9449,
        "meta_mean_anomaly": 346.2768,
        "meta_ephemeris_type": 0,
        "meta_classification_type": "U",
        "meta_norad_cat_id": 32052,
        "meta_element_set_no": 999,
        "meta_rev_at_epoch": 91722,
        "meta_bstar": 3.5701696e-05,
        "meta_mean_motion_dot": 5e-07,
        "meta_mean_motion_ddot": 0,
        "tle_line1": "1 32052U 07038A   25355.45162650  .00000050  00000+0  35702-4 0  9994",
        "tle_line2": "2 32052  82.9806 336.8861 0038742  13.9449 346.2768 13.75150240917221"
      },
      "geometry": {
        "type": "Point",
        "coordinates": [
          163.67115790482345,
          -44.82239677006501
        ]
      }
    },
    {
      "type": "Feature",
      "properties": {
        "norad_id": 35635,
        "name": "COSMOS 2454",
        "group": "musson",
        "lat": -79.57341890991009,
        "lon": 24.002507761070998,
        "alt_km": 948.6296175743282,
        "timestamp": "2025-12-21T18:54:58.766440+00:00",
        "meta_object_name": "COSMOS 2454",
        "meta_object_id": "2009-039A",
        "meta_epoch": "2025-12-21T12:45:18.930240",
        "meta_mean_motion": 13.8992965,
        "meta_eccentricity": 0.00201793,
        "meta_inclination": 82.9557,
        "meta_ra_of_asc_node": 161.9803,
        "meta_arg_of_pericenter": 50.1646,
        "meta_mean_anomaly": 8.4587,
        "meta_ephemeris_type": 0,
        "meta_classification_type": "U",
        "meta_norad_cat_id": 35635,
        "meta_element_set_no": 999,
        "meta_rev_at_epoch": 83272,
        "meta_bstar": 3.079993e-05,
        "meta_mean_motion_dot": 5.4e-07,
        "meta_mean_motion_ddot": 0,
        "tle_line1": "1 35635U 09039A   25355.53146910  .00000054  00000+0  30800-4 0  9995",
        "tle_line2": "2 35635  82.9557 161.9803 0020179  50.1646   8.4587 13.89929650832725"
      },
      "geometry": {
        "type": "Point",
        "coordinates": [
          24.002507761070998,
          -79.57341890991009
        ]
      }
    },
    {
      "type": "Feature",
      "properties": {
        "norad_id": 36519,
        "name": "COSMOS 2463",
        "group": "musson",
        "lat": 66.98796698384112,
        "lon": 36.97619191792154,
        "alt_km": 1011.9995536795932,
        "timestamp": "2025-12-21T18:54:58.766462+00:00",
        "meta_object_name": "COSMOS 2463",
        "meta_object_id": "2010-017A",
        "meta_epoch": "2025-12-21T12:08:15.115200",
        "meta_mean_motion": 13.71649866,
        "meta_eccentricity": 0.00347568,
        "meta_inclination": 82.9604,
        "meta_ra_of_asc_node": 20.2705,
        "meta_arg_of_pericenter": 262.8286,
        "meta_mean_anomaly": 211.2151,
        "meta_ephemeris_type": 0,
        "meta_classification_type": "U",
        "meta_norad_cat_id": 36519,
        "meta_element_set_no": 999,
        "meta_rev_at_epoch": 78357,
        "meta_bstar": 4.0001614e-05,
        "meta_mean_motion_dot": 5.1e-07,
        "meta_mean_motion_ddot": 0,
        "tle_line1": "1 36519U 10017A   25355.50573050  .00000051  00000+0  40002-4 0  9993",
        "tle_line2": "2 36519  82.9604  20.2705 0034756 262.8286 211.2151 13.71649866783574"
      },
      "geometry": {
        "type": "Point",
        "coordinates": [
          36.97619191792154,
          66.98796698384112
        ]
      }
    }
  ]
}